{
  "type": "FeatureCollection",
  "features": [
    {
      "type": "Feature",
      "properties": {
        "norad_id": 44709,
        "name": "BEIDOU-3 IGSO-3 (C40)",
        "group": "beidou",
        "lat": -0.7658281694891745,
        "lon": -77.66452887657456,
        "alt_km": 35979.00455979253,
        "timestamp": "2025-12-14T05:42:18.725269+00:00",
        "meta_object_name": "BEIDOU-3 IGSO-3 (C40)",
        "meta_object_id": "2019-073A",
        "meta_epoch": "2025-11-20T07:11:22.740000",
        "meta_mean_motion": 1.00250097,
        "meta_eccentricity": 0.0044538,
        "meta_inclination": 55.163,
        "meta_ra_of_asc_node": 283.159,
        "meta_arg_of_pericenter": 191.5856,
        "meta_mean_anomaly": 168.2409,
        "meta_ephemeris_type": 0,
        "meta_classification_type": "U",
        "meta_norad_cat_id": 44709,
        "meta_element_set_no": 999,
        "meta_rev_at_epoch": 2236,
        "meta_bstar": 0,
        "meta_mean_motion_dot": -2.06e-06,
        "meta_mean_motion_ddot": 0,
        "tle_line1": "1 44709U 19073A   25324.29956875 -.00000206  00000+0  00000+0 0  9998",
        "tle_line2": "2 44709  55.1630 283.1590 0044538 191.5856 168.2409  1.00250097 22360"
      },
      "geometry": {
        "type": "Point",
        "coordinates": [
          -77.66452887657456,
          -0.7658281694891745
        ]
      }
    },
    {
      "type": "Feature",
      "properties": {
        "norad_id": 44793,
        "name": "BEIDOU-3 M22 (C44)",
        "group": "beidou",
        "lat": -54.08633704983154,
        "lon": -141.42075070929943,
        "alt_km": 21539.758805644575,
        "timestamp": "2025-12-14T05:42:18.725290+00:00",
        "meta_object_name": "BEIDOU-3 M22 (C44)",
        "meta_object_id": "2019-078A",
        "meta_epoch": "2025-12-13T07:06:19.584864",
        "meta_mean_motion": 1.86231752,
        "meta_eccentricity": 0.00057087,
        "meta_inclination": 54.1075,
        "meta_ra_of_asc_node": 306.366,
        "meta_arg_of_pericenter": 23.494,
        "meta_mean_anomaly": 336.5219,
        "meta_ephemeris_type": 0,
        "meta_classification_type": "U",
        "meta_norad_cat_id": 44793,
        "meta_element_set_no": 999,
        "meta_rev_at_epoch": 4118,
        "meta_bstar": 0,
        "meta_mean_motion_dot": -9.7e-07,
        "meta_mean_motion_ddot": 0,
        "tle_line1": "1 44793U 19078A   25347.29606001 -.00000097  00000+0  00000+0 0  9992",
        "tle_line2": "2 44793  54.1075 306.3660 0005708  23.4940 336.5219  1.86231752 41185"
      },
      "geometry": {
        "type": "Point",
        "coordinates": [
          -141.42075070929943,
          -54.08633704983154
        ]
      }
    },
    {
      "type": "Feature",
      "properties": {
        "norad_id": 44794,
        "name": "BEIDOU-3 M21 (C43)",
        "group": "beidou",
        "lat": 0.7449377580207143,
        "lon": 125.73886254987441,
        "alt_km": 21539.313418520393,
        "timestamp": "2025-12-14T05:42:18.725301+00:00",
        "meta_object_name": "BEIDOU-3 M21 (C43)",
        "meta_object_id": "2019-078B",
        "meta_epoch": "2025-12-12T21:31:22.326816",
        "meta_mean_motion": 1.86227454,
        "meta_eccentricity": 0.00039343,
        "meta_inclination": 54.0813,
        "meta_ra_of_asc_node": 306.3451,
        "meta_arg_of_pericenter": 10.3646,
        "meta_mean_anomaly": 349.6338,
        "meta_ephemeris_type": 0,
        "meta_classification_type": "U",
        "meta_norad_cat_id": 44794,
        "meta_element_set_no": 999,
        "meta_rev_at_epoch": 4118,
        "meta_bstar": 0,
        "meta_mean_motion_dot": -9.6e-07,
        "meta_mean_motion_ddot": 0,
        "tle_line1": "1 44794U 19078B   25346.89678619 -.00000096  00000+0  00000+0 0  9991",
        "tle_line2": "2 44794  54.0813 306.3451 0003934  10.3646 349.6338  1.86227454 41181"
      },
      "geometry": {
        "type": "Point",
        "coordinates": [
          125.73886254987441,
          0.7449377580207143
        ]
      }
    },
    {
      "type": "Feature",
      "properties": {
        "norad_id": 44864,
        "name": "BEIDOU-3 M19 (C41)",
        "group": "beidou",
        "lat": 12.427718669210355,
        "lon": 77.3325463681979,
        "alt_km": 21526.406779513396,
        "timestamp": "2025-12-14T05:42:18.725313+00:00",
        "meta_object_name": "BEIDOU-3 M19 (C41)",
        "meta_object_id": "2019-090A",
        "meta_epoch": "2025-12-10T23:47:39.658272",
        "meta_mean_motion": 1.86231263,
        "meta_eccentricity": 0.0017877,
        "meta_inclination": 56.392,
        "meta_ra_of_asc_node": 69.0187,
        "meta_arg_of_pericenter": 285.2046,
        "meta_mean_anomaly": 73.1126,
        "meta_ephemeris_type": 0,
        "meta_classification_type": "U",
        "meta_norad_cat_id": 44864,
        "meta_element_set_no": 999,
        "meta_rev_at_epoch": 4072,
        "meta_bstar": 0,
        "meta_mean_motion_dot": -6e-07,
        "meta_mean_motion_ddot": 0,
        "tle_line1": "1 44864U 19090A   25344.99143123 -.00000060  00000+0  00000+0 0  9990",
        "tle_line2": "2 44864  56.3920  69.0187 0017877 285.2046  73.1126  1.86231263 40726"
      },
      "geometry": {
        "type": "Point",
        "coordinates": [
          77.3325463681979,
          12.427718669210355
        ]
      }
    },
    {
      "type": "Feature",
      "properties": {
        "norad_id": 44865,
        "name": "BEIDOU-3 M20 (C42)",
        "group": "beidou",
        "lat": 53.77591345548729,
        "lon": -176.0628916484371,
        "alt_km": 21562.129440872235,
        "timestamp": "2025-12-14T05:42:18.725324+00:00",
        "meta_object_name": "BEIDOU-3 M20 (C42)",
        "meta_object_id": "2019-090B",
        "meta_epoch": "2025-12-10T20:36:05.507712",
        "meta_mean_motion": 1.86231317,
        "meta_eccentricity": 0.0014897,
        "meta_inclination": 56.3937,
        "meta_ra_of_asc_node": 69.0576,
        "meta_arg_of_pericenter": 298.003,
        "meta_mean_anomaly": 60.7372,
        "meta_ephemeris_type": 0,
        "meta_classification_type": "U",
        "meta_norad_cat_id": 44865,
        "meta_element_set_no": 999,
        "meta_rev_at_epoch": 4070,
        "meta_bstar": 0,
        "meta_mean_motion_dot": -5.8e-07,
        "meta_mean_motion_ddot": 0,
        "tle_line1": "1 44865U 19090B   25344.85839708 -.00000058  00000+0  00000+0 0  9994",
        "tle_line2": "2 44865  56.3937  69.0576 0014897 298.0030  60.7372  1.86231317 40704"
      },
      "geometry": {
        "type": "Point",
        "coordinates": [
          -176.0628916484371,
          53.77591345548729
        ]
      }
    },
    {
      "type": "Feature",
      "properties": {
        "norad_id": 45344,
        "name": "BEIDOU-3 G2 (C60)",
        "group": "beidou",
        "lat": -1.0700052005519753,
        "lon": -111.29901162044226,
        "alt_km": 35777.48796554408,
        "timestamp": "2025-12-14T05:42:18.725336+00:00",
        "meta_object_name": "BEIDOU-3 G2 (C60)",
        "meta_object_id": "2020-017A",
        "meta_epoch": "2025-12-13T17:21:38.913120",
        "meta_mean_motion": 1.0027304,
        "meta_eccentricity": 0.0004436,
        "meta_inclination": 2.4995,
        "meta_ra_of_asc_node": 43.8791,
        "meta_arg_of_pericenter": 268.3523,
        "meta_mean_anomaly": 110.8667,
        "meta_ephemeris_type": 0,
        "meta_classification_type": "U",
        "meta_norad_cat_id": 45344,
        "meta_element_set_no": 999,
        "meta_rev_at_epoch": 2140,
        "meta_bstar": 0,
        "meta_mean_motion_dot": -1.26e-06,
        "meta_mean_motion_ddot": 0,
        "tle_line1": "1 45344U 20017A   25347.72336705 -.00000126  00000+0  00000+0 0  9992",
        "tle_line2": "2 45344   2.4995  43.8791 0004436 268.3523 110.8667  1.00273040 21402"
      },
      "geometry": {
        "type": "Point",
        "coordinates": [
          -111.29901162044226,
          -1.0700052005519753
        ]
      }
    },
    {
      "type": "Feature",
      "properties": {
        "norad_id": 45807,
        "name": "BEIDOU-3 G3 (C61)",
        "group": "beidou",
        "lat": -1.094996702051701,
        "lon": -80.78965974662545,
        "alt_km": 35787.63617466471,
        "timestamp": "2025-12-14T05:42:18.725348+00:00",
        "meta_object_name": "BEIDOU-3 G3 (C61)",
        "meta_object_id": "2020-040A",
        "meta_epoch": "2025-12-08T17:33:17.532288",
        "meta_mean_motion": 1.00275813,
        "meta_eccentricity": 0.00060306,
        "meta_inclination": 1.9816,
        "meta_ra_of_asc_node": 66.5886,
        "meta_arg_of_pericenter": 306.262,
        "meta_mean_anomaly": 78.7159,
        "meta_ephemeris_type": 0,
        "meta_classification_type": "U",
        "meta_norad_cat_id": 45807,
        "meta_element_set_no": 999,
        "meta_rev_at_epoch": 2016,
        "meta_bstar": 0,
        "meta_mean_motion_dot": -3.52e-06,
        "meta_mean_motion_ddot": 0,
        "tle_line1": "1 45807U 20040A   25342.73145292 -.00000352  00000+0  00000+0 0  9998",
        "tle_line2": "2 45807   1.9816  66.5886 0006030 306.2620  78.7159  1.00275813 20161"
      },
      "geometry": {
        "type": "Point",
        "coordinates": [
          -80.78965974662545,
          -1.094996702051701
        ]
      }
    }
  ]
}